<?xml version="1.0" encoding="UTF-8"?>
<kml xmlns="http://www.opengis.net/kml/2.2">
  <Document>
    <name>日本のシーレーン スンダ海峡経由</name>
    <description>ペルシャ湾(ホルムズ海峡)からインド洋・スンダ海峡・ジャワ海を経て日本へ至る航路</description>
    <Style id="redLine">
      <LineStyle>
        <color>800000ff</color>
        <width>5</width>
      </LineStyle>
    </Style>
    <Placemark>
      <name>スンダ海峡ルート</name>
      <description>ホルムズ海峡 → インド洋 → スンダ海峡 → ジャワ海 → カリマタ海峡 → 南シナ海 → 日本</description>
      <styleUrl>#redLine</styleUrl>
      <LineString>
        <tessellate>1</tessellate>
        <coordinates>
          56.3,26.6,0
          58.0,24.5,0
          60.0,22.3,0
          62.0,20.0,0
          64.5,17.0,0
          67.0,14.0,0
          69.5,11.0,0
          72.0,8.0,0
          74.5,5.0,0
          77.0,2.0,0
          79.5,-1.0,0
          82.5,-3.5,0
          86.0,-5.3,0
          90.0,-6.3,0
          94.0,-6.8,0
          98.0,-7.0,0
          101.5,-6.9,0
          104.0,-6.5,0
          105.4,-6.0,0
          106.2,-5.5,0
          107.5,-4.8,0
          108.8,-3.5,0
          108.9,-2.0,0
          108.8,-0.5,0
          108.7,1.0,0
          109.0,3.0,0
          110.0,6.0,0
          111.5,9.0,0
          113.0,12.0,0
          114.5,15.0,0
          116.0,18.0,0
          117.5,20.0,0
          119.0,20.8,0
          120.8,21.2,0
          122.0,21.6,0
          123.5,22.2,0
          126.0,24.0,0
          129.0,26.5,0
          132.0,29.0,0
          135.0,31.5,0
          137.5,33.5,0
          139.0,34.5,0
          139.8,35.0,0
        </coordinates>
      </LineString>
    </Placemark>
  </Document>
</kml>
