<?xml version="1.0" encoding="UTF-8"?>
<kml xmlns="http://www.opengis.net/kml/2.2">
  <Document>
    <name>日本のシーレーン マラッカ海峡経由</name>
    <description>ペルシャ湾(ホルムズ海峡)からマラッカ海峡・南シナ海を経て日本へ至る航路</description>
    <Style id="redLine">
      <LineStyle>
        <color>800000ff</color>
        <width>5</width>
      </LineStyle>
    </Style>
    <Placemark>
      <name>マラッカ海峡ルート</name>
      <description>ホルムズ海峡 → マラッカ海峡 → シンガポール → 南シナ海 → バシー海峡 → 日本</description>
      <styleUrl>#redLine</styleUrl>
      <LineString>
        <tessellate>1</tessellate>
        <coordinates>
          56.3,26.6,0
          57.8,25.0,0
          59.5,23.3,0
          61.5,21.3,0
          63.5,19.0,0
          65.5,16.5,0
          68.0,13.5,0
          70.5,10.8,0
          73.0,8.2,0
          76.0,6.0,0
          79.0,5.3,0
          82.0,5.2,0
          85.0,5.3,0
          88.0,5.5,0
          91.0,5.7,0
          93.5,5.9,0
          95.5,6.1,0
          97.0,5.8,0
          98.5,5.0,0
          100.0,3.9,0
          101.3,2.7,0
          102.4,1.95,0
          103.2,1.40,0
          103.8,1.18,0
          104.4,1.20,0
          104.9,1.35,0
          105.8,2.6,0
          107.2,4.3,0
          108.8,6.8,0
          110.0,9.2,0
          111.0,11.5,0
          112.5,14.5,0
          114.0,17.5,0
          116.0,19.8,0
          118.5,20.8,0
          120.5,21.2,0
          122.0,21.6,0
          123.5,22.2,0
          126.0,24.0,0
          129.0,26.5,0
          132.0,29.0,0
          135.0,31.5,0
          137.5,33.5,0
          139.0,34.5,0
          139.8,35.0,0
        </coordinates>
      </LineString>
    </Placemark>
  </Document>
</kml>
