<?xml version="1.0" encoding="UTF-8"?>
<kml xmlns="http://www.opengis.net/kml/2.2">
  <Document>
    <name>日本のシーレーン ロンボク海峡経由</name>
    <description>ペルシャ湾(ホルムズ海峡)からインド洋・ロンボク海峡・マカッサル海峡・フィリピン海を経て日本へ至る大型タンカー向け航路</description>
    <Style id="redLine">
      <LineStyle>
        <color>800000ff</color>
        <width>5</width>
      </LineStyle>
    </Style>
    <Placemark>
      <name>ロンボク海峡ルート</name>
      <description>ホルムズ海峡 → インド洋 → ロンボク海峡 → マカッサル海峡 → セレベス海 → フィリピン海 → 日本</description>
      <styleUrl>#redLine</styleUrl>
      <LineString>
        <tessellate>1</tessellate>
        <coordinates>
          56.3,26.6,0
          58.0,24.0,0
          60.5,21.5,0
          63.0,18.5,0
          65.5,15.5,0
          68.0,12.5,0
          70.5,9.5,0
          73.0,6.5,0
          75.5,3.5,0
          78.0,0.5,0
          80.5,-2.5,0
          83.5,-5.0,0
          87.0,-6.8,0
          91.0,-8.0,0
          96.0,-9.0,0
          101.0,-9.6,0
          106.0,-9.8,0
          110.0,-9.6,0
          113.0,-9.2,0
          115.0,-8.9,0
          115.7,-8.5,0
          116.3,-6.8,0
          117.0,-5.2,0
          117.8,-3.5,0
          118.3,-1.5,0
          118.6,0.5,0
          119.2,2.5,0
          120.5,4.0,0
          122.0,5.0,0
          124.0,5.0,0
          126.0,5.5,0
          127.8,7.0,0
          128.5,10.0,0
          130.0,14.0,0
          131.5,18.0,0
          133.0,22.0,0
          134.5,26.0,0
          136.0,29.5,0
          137.5,32.5,0
          139.0,34.3,0
          139.8,35.0,0
        </coordinates>
      </LineString>
    </Placemark>
  </Document>
</kml>
